{
    "links": {
        "self": "http://www.neowsapp.com/rest/v1/neo/3463389?api_key=iIulBulltgU6a56xZRHN4H3l9WmuAYTsLGpBGhQ2"
    },
    "id": "3463389",
    "neo_reference_id": "3463389",
    "name": "(2009 MG1)",
    "designation": "2009 MG1",
    "nasa_jpl_url": "http://ssd.jpl.nasa.gov/sbdb.cgi?sstr=3463389",
    "absolute_magnitude_h": 24.0,
    "estimated_diameter": {
        "kilometers": {
            "estimated_diameter_min": 0.0421264611,
            "estimated_diameter_max": 0.0941976306
        },
        "meters": {
            "estimated_diameter_min": 42.1264610556,
            "estimated_diameter_max": 94.1976305719
        },
        "miles": {
            "estimated_diameter_min": 0.0261761612,
            "estimated_diameter_max": 0.0585316759
        },
        "feet": {
            "estimated_diameter_min": 138.2101784897,
            "estimated_diameter_max": 309.0473542854
        }
    },
    "is_potentially_hazardous_asteroid": false,
    "close_approach_data": [
        {
            "close_approach_date": "2009-06-14",
            "close_approach_date_full": "2009-Jun-14 16:54",
            "epoch_date_close_approach": 1244998440000,
            "relative_velocity": {
                "kilometers_per_second": "17.5467854073",
                "kilometers_per_hour": "63168.4274663088",
                "miles_per_hour": "39250.4042776073"
            },
            "miss_distance": {
                "astronomical": "0.0402826044",
                "lunar": "15.6699331116",
                "kilometers": "6026191.816292628",
                "miles": "3744501.9597811464"
            },
            "orbiting_body": "Earth"
        }
    ],
    "orbital_data": {
        "orbit_id": "9",
        "orbit_determination_date": "2017-04-06 09:00:24",
        "first_observation_date": "2009-06-21",
        "last_observation_date": "2009-07-02",
        "data_arc_in_days": 11,
        "observations_used": 19,
        "orbit_uncertainty": "9",
        "minimum_orbit_intersection": ".0148858",
        "jupiter_tisserand_invariant": "3.564",
        "epoch_osculation": "2455006.5",
        "eccentricity": ".6246247212519154",
        "semi_major_axis": "1.999514976578312",
        "inclination": "6.788203004360227",
        "ascending_node_longitude": "87.89353713160143",
        "orbital_period": "1032.72673232336",
        "perihelion_distance": ".7505684916940536",
        "perihelion_argument": "101.4304765731865",
        "aphelion_distance": "3.248461461462569",
        "perihelion_time": "2454950.503003652727",
        "mean_anomaly": "19.52008992704787",
        "mean_motion": ".348591731706311",
        "equinox": "J2000",
        "orbit_class": {
            "orbit_class_type": "APO",
            "orbit_class_description": "Near-Earth asteroid orbits which cross the Earth’s orbit similar to that of 1862 Apollo",
            "orbit_class_range": "a (semi-major axis) > 1.0 AU; q (perihelion) < 1.017 AU"
        }
    },
    "is_sentry_object": false
}